#aV2007  9 19  0  0   .00000000      96 DD+AD WGS84 FIT  NGA
## 1445 259200.00000000   900.00000000 54362  .0000000000000
+   31     1  2  3  4  5  6  7  8  9 10 11 12 13 14 16 17 18
+         19 20 21 22 23 24 25 26 27 28 29 30 31 32  0  0  0
+          0  0  0  0  0  0  0  0  0  0  0  0  0  0  0  0  0
+          0  0  0  0  0  0  0  0  0  0  0  0  0  0  0  0  0
+          0  0  0  0  0  0  0  0  0  0  0  0  0  0  0  0  0
++         0  0  0  0  0  0  0  0  0  0  0  0  0  0  0  0  0
++         0  0  0  0  0  0  0  0  0  0  0  0  0  0  0  0  0
++         0  0  0  0  0  0  0  0  0  0  0  0  0  0  0  0  0
++         0  0  0  0  0  0  0  0  0  0  0  0  0  0  0  0  0
++         0  0  0  0  0  0  0  0  0  0  0  0  0  0  0  0  0
%c cc cc ccc ccc cccc cccc cccc cccc ccccc ccccc ccccc ccccc
%c cc cc ccc ccc cccc cccc cccc cccc ccccc ccccc ccccc ccccc
%f  0.0000000  0.000000000  0.00000000000  0.000000000000000
%f  0.0000000  0.000000000  0.00000000000  0.000000000000000
%i    0    0    0    0      0      0      0      0         0
%i    0    0    0    0      0      0      0      0         0
/*      NGA, ST. LOUIS,MO.                                  
/*   EPHEMERIS COMPUTED FROM  3 DAYS OF DATA                
/* CCCCCCCCCCCCCCCCCCCCCCCCCCCCCCCCCCCCCCCCCCCCCCCCCCCCCCCCC
/* CCCCCCCCCCCCCCCCCCCCCCCCCCCCCCCCCCCCCCCCCCCCCCCCCCCCCCCCC
*  2007  9 19  6 30   .00000000                                                 
P  1 -14239.448277   5406.464269 -21532.152987    153.552950                    
V  1    225.845706 -27786.203426  -7131.946452       .025209                    
P  2  23283.667460 -12161.833451  -2747.634072    137.552277                    
V  2   -927.500600   4747.944148 -31345.972944       .027948                    
P  3 -11873.267087  14854.227939  18179.686388    117.775369                    
V  3  -5225.461224 -23314.996432  15789.738097       .052652                    
P  4  23250.086829  -3013.994622 -12887.546750     -6.628766                    
V  4 -12643.270420  10334.294274 -25006.247328      -.030214                    
P  5  -7594.646085 -17918.529314 -18394.729217    401.048554                    
V  5  21629.911513   7560.234421 -16379.436523       .329089                    
P  6  -8009.535566 -23828.494590   8711.458499    244.895502                    
V  6   2625.008663 -11056.182706 -28464.050490      -.023183                    
P  7  -9633.253306 -22663.905020  10234.292869    -95.948492                    
V  7   1986.523354 -12800.873524 -27437.070609       .244392                    
P  8  18517.366747   4130.060755  18667.835332   -123.328546                    
V  8 -20330.349587  12260.006608  16904.886332      -.015186                    
P  9   9482.062357 -19465.999666 -15865.119995     88.338398                    
V  9  16871.942057  -9132.393458  22340.223520       .017269                    
P 10  17335.540588  -5429.322885  19370.927419    -71.763442                    
V 10  20895.971025  13256.909957 -14583.402885      -.198260                    
P 11  -5637.806787  21135.389554 -14979.316921     23.845525                    
V 11 -16707.647462  10060.926353  20957.130248       .004716                    
P 12   -460.653306 -16610.193780 -20643.463197    -56.636450                    
V 12  23619.326023  11827.908335  -9935.155337      -.012845                    
P 13   5984.423142  23969.532129   9680.935712    207.527616                    
V 13  -1707.044174  12378.697115 -29246.408474       .029318                    
P 14 -13841.938466  -8347.808288 -21005.827225     42.310939                    
V 14    485.088198 -26783.143920  10185.714291       .023102                    
P 16 -20940.874954   1320.082575  16454.904118    176.459708                    
V 16 -17207.542986 -11597.832236 -20902.360242       .022187                    
P 17  14214.665205  10140.738347 -20034.635967     54.249900                    
V 17   -573.840481  25458.189472  12331.834464      -.011386                    
P 18 -18184.866178 -17790.290710   8398.096200   -235.478201                    
V 18  10211.321976   3097.190041  28882.850534       .018198                    
P 19  -8024.644513  23174.446121  10106.445870     66.145354                    
V 19  -2165.321080 -12845.560406  28136.770970       .024800                    
P 20   4159.833403  17806.205967 -19377.438658    -29.825809                    
V 20 -22246.235902 -10138.242054 -14131.951136      -.005729                    
P 21 -10371.690322 -12145.805649  21407.023257     78.191295                    
V 21  23275.010017 -13461.203964   3075.459814      -.002323                    
P 22 -23810.153685 -11083.287245  -3958.661037    198.210105                    
V 22  -2857.537247  -5375.225935  30928.299293       .012024                    
P 23     12.794104  26418.666787   -954.810100    202.731398                    
V 23  -2709.387873  -1060.477826 -32108.359613       .038240                    
P 24   2914.157106 -17648.052929  19921.282368     31.742006                    
V 24  22272.880106 -10950.571311 -12804.485587       .029599                    
P 25   3922.110855  15766.747629  21400.178017    442.385594                    
V 25 -21340.905818  15388.004416  -7406.109208       .096927                    
P 26   8719.994327 -20871.848648  12998.708314     32.828317                    
V 26   1748.760038  17439.208626  26470.824372       .133826                    
P 27  11019.218482  11017.348324  22176.756250    136.019801                    
V 27 -21688.690399  15371.155417   3026.665540       .024013                    
P 28  23293.353948  13139.771693   -303.951116     -7.138281                    
V 28   -549.283327   2549.768278  31556.057755      -.007294                    
P 29  10784.234219 -17255.954786  17047.084909      5.703355                    
V 29   1914.431671  21319.002712  20989.316879       .001431                    
P 30 -13172.943962 -18206.518479 -14567.321340     46.160537                    
V 30  17074.340802   5924.510220 -23266.906133       .012913                    
P 31 -23612.768618   6161.835495 -10371.421874      9.054901                    
V 31  10159.381390  -9109.601671 -27936.889382      -.012500                    
P 32 -22015.918107  -3041.733505 -13968.131396     65.359060                    
V 32 -14384.162044 -11938.968119  24587.302863       .164570                    
EOF
